OBJECT_NAME,OBJECT_ID,EPOCH,MEAN_MOTION,ECCENTRICITY,INCLINATION,RA_OF_ASC_NODE,ARG_OF_PERICENTER,MEAN_ANOMALY,EPHEMERIS_TYPE,CLASSIFICATION_TYPE,NORAD_CAT_ID,ELEMENT_SET_NO,REV_AT_EPOCH,BSTAR,MEAN_MOTION_DOT,MEAN_MOTION_DDOT
ASTRA 2E,2013-056A,2026-07-07T17:18:18.121248,1.00270115,.0002555,0.0672,323.3409,151.5222,98.8832,0,U,39285,999,4662,0,.165E-5,0
FM-6,2013-058A,2026-07-07T16:36:59.454720,1.00270730,.0002843,0.0429,67.7872,116.5710,234.2159,0,U,39360,999,4627,0,0,0
RADUGA-1M 3,2013-062A,2026-07-07T17:20:10.441248,1.00272340,.0001832,6.0070,72.0911,274.0083,234.6128,0,U,39375,999,4631,0,.164E-5,0
SES-8,2013-071A,2026-07-07T17:37:16.302144,1.00270549,.0002774,0.0548,264.1161,203.8060,177.0946,0,U,39460,999,4463,0,-.254E-5,0
INMARSAT 5-F1,2013-073A,2026-07-07T17:27:54.697824,1.00270184,.0000589,0.0199,35.0508,296.2763,278.9785,0,U,39476,999,4578,0,.43E-6,0
TKSAT-1 (TUPAC KATARI),2013-075A,2026-07-07T15:02:36.199104,1.00272848,.0002505,0.0427,122.2415,345.6065,316.1907,0,U,39481,999,4580,0,-.18E-5,0
EXPRESS-AM5,2013-077A,2026-07-07T19:32:44.708640,1.00271162,.0000039,0.0248,281.4824,176.4392,261.0759,0,U,39487,999,4656,0,-.265E-5,0
GSAT-14,2014-001A,2026-07-07T17:31:09.388128,1.00270742,.0001551,0.0162,284.9497,284.7095,52.7986,0,U,39498,999,4558,0,-.61E-6,0
THAICOM 6,2014-002A,2026-07-07T08:59:11.088960,1.00269975,.00046053,0.0686,105.2656,16.8242,16.5448,0,U,39500,999,4566,0,-.105E-5,0
TDRS 12,2014-004A,2026-07-07T11:50:24.074016,1.00275467,.00040266,3.9963,19.3996,202.8052,199.9307,0,U,39504,999,4448,0,-.257E-5,0
ABS-2,2014-006A,2026-07-07T16:35:06.192096,1.00271305,.0003493,0.0349,78.2995,12.7859,158.2614,0,U,39508,999,4548,0,-.71E-6,0
ATHENA-FIDUS,2014-006B,2026-07-07T17:20:55.370112,1.00266663,.0001428,0.0154,54.4053,78.8473,90.4555,0,U,39509,999,4529,0,0,0
TURKSAT 4A,2014-007A,2026-07-07T13:56:42.273312,1.00270646,.0000913,0.0752,283.0770,333.5329,280.0989,0,U,39522,999,4517,0,.161E-5,0
EXPRESS-AT1,2014-010A,2026-07-07T21:15:21.450816,1.00308480,.000458,0.3076,85.5260,50.1099,173.9631,0,U,39612,999,4502,0,.16E-6,0
EXPRESS-AT2,2014-010B,2026-07-07T17:26:02.377824,1.00270218,.0000278,0.0164,302.5977,358.5804,302.0213,0,U,39613,999,4470,0,.94E-6,0
AMAZONAS 4A,2014-011A,2026-07-07T13:23:30.455232,1.00272360,.0004655,0.0619,205.4785,287.1181,279.8175,0,U,39616,999,4491,0,-.237E-5,0
ASTRA 5B,2014-011B,2026-07-07T16:41:10.970304,1.00270859,.00019,0.0676,308.8272,160.5793,90.0426,0,U,39617,999,4487,0,.152E-5,0
IRNSS-1B,2014-017A,2026-07-07T17:25:47.402112,1.00273395,.0022945,28.8900,240.0484,195.8882,166.2518,0,U,39635,999,4500,0,.141E-5,0
LUCH-5V,2014-023A,2026-07-07T19:22:21.590112,1.00267649,.0002705,5.1806,69.5392,66.0340,175.4685,0,U,39727,999,4456,0,-.256E-5,0
KAZSAT-3,2014-023B,2026-07-07T17:26:47.305824,1.00272168,.0000128,0.0083,349.2640,283.0556,333.5712,0,U,39728,999,4266,0,.76E-6,0
EUTELSAT 3B,2014-030A,2026-07-07T17:11:03.689088,1.00274153,.0003929,0.0634,342.3304,127.2607,76.9590,0,U,39773,999,4427,0,.36E-6,0
ASIASAT 8 (AMOS-7),2014-046A,2026-07-07T17:40:08.525856,1.00271424,.0001436,0.0211,294.4748,173.0817,188.4949,0,U,40107,999,10235,0,-.318E-5,0
ASIASAT 6,2014-052A,2026-07-07T21:09:35.250336,1.00270873,.0000765,0.0155,330.8355,172.5909,219.7311,0,U,40141,999,4328,0,-.347E-5,0
OPTUS 10,2014-054A,2026-07-07T16:11:54.358944,1.00269696,.0001986,0.1032,326.5033,142.2547,215.8504,0,U,40146,999,4323,0,-.132E-5,0
MEASAT-3B,2014-054B,2026-07-07T17:36:08.909280,1.00269731,.0002541,0.0299,33.4361,57.8736,189.8950,0,U,40147,999,4311,0,-.226E-5,0
HIMAWARI-8,2014-060A,2026-07-07T17:50:15.058176,1.00270432,.0000887,0.0372,277.5001,204.0391,212.3957,0,U,40267,999,4296,0,-.26E-5,0
IRNSS-1C,2014-061A,2026-07-07T17:33:46.636128,1.00273523,.0022134,6.5687,88.5401,4.6687,178.9358,0,U,40269,999,4289,0,-.151E-5,0
INTELSAT 30 (IS-30),2014-062A,2026-07-07T13:17:38.516928,1.00269626,.0001325,0.0162,45.6651,344.1934,0.0276,0,U,40271,999,699,0,-.135E-5,0
ARSAT 1,2014-062B,2026-07-07T11:41:39.911136,1.00271472,.0001876,0.0542,278.8766,187.2841,282.9065,0,U,40272,999,4282,0,-.244E-5,0
EUTELSAT 53A,2014-064A,2026-07-07T20:50:37.067712,1.00275482,.0001604,0.0194,296.9737,258.8137,95.6985,0,U,40277,999,4177,0,.113E-5,0
GSAT-16,2014-078A,2026-07-07T15:43:11.981856,1.00271200,.0007461,0.0363,264.9884,185.8172,125.6859,0,U,40332,999,4231,0,.1E-5,0
DIRECTV 14,2014-078B,2026-07-07T14:59:06.533088,1.00273130,.0000237,0.0105,36.3379,306.2450,68.5441,0,U,40333,999,4224,0,-.11E-5,0
