ASTRA 2E                
1 39285U 13056A   26188.72104307  .00000165  00000+0  00000+0 0  9991
2 39285   0.0672 323.3409 0002555 151.5222  98.8832  1.00270115 46626
FM-6                    
1 39360U 13058A   26188.69235480  .00000000  00000+0  00000+0 0  9998
2 39360   0.0429  67.7872 0002843 116.5710 234.2159  1.00270730 46278
RADUGA-1M 3             
1 39375U 13062A   26188.72234307  .00000164  00000+0  00000+0 0  9991
2 39375   6.0070  72.0911 0001832 274.0083 234.6128  1.00272340 46319
SES-8                   
1 39460U 13071A   26188.73421646 -.00000254  00000+0  00000+0 0  9992
2 39460   0.0548 264.1161 0002774 203.8060 177.0946  1.00270549 44630
INMARSAT 5-F1           
1 39476U 13073A   26188.72771641  .00000043  00000+0  00000+0 0  9998
2 39476   0.0199  35.0508 0000589 296.2763 278.9785  1.00270184 45781
TKSAT-1 (TUPAC KATARI)  
1 39481U 13075A   26188.62680786 -.00000180  00000+0  00000+0 0  9997
2 39481   0.0427 122.2415 0002505 345.6065 316.1907  1.00272848 45804
EXPRESS-AM5             
1 39487U 13077A   26188.81440635 -.00000265  00000+0  00000+0 0  9997
2 39487   0.0248 281.4824 0000039 176.4392 261.0759  1.00271162 46561
GSAT-14                 
1 39498U 14001A   26188.72996977 -.00000061  00000+0  00000+0 0  9996
2 39498   0.0162 284.9497 0001551 284.7095  52.7986  1.00270742 45586
THAICOM 6               
1 39500U 14002A   26188.37443390 -.00000105  00000+0  00000+0 0  9997
2 39500   0.0686 105.2656 0004605  16.8242  16.5448  1.00269975 45660
TDRS 12                 
1 39504U 14004A   26188.49333419 -.00000257  00000+0  00000+0 0  9994
2 39504   3.9963  19.3996 0004026 202.8052 199.9307  1.00275467 44481
ABS-2                   
1 39508U 14006A   26188.69104389 -.00000071  00000+0  00000+0 0  9998
2 39508   0.0349  78.2995 0003493  12.7859 158.2614  1.00271305 45481
ATHENA-FIDUS            
1 39509U 14006B   26188.72286308  .00000000  00000+0  00000+0 0  9996
2 39509   0.0154  54.4053 0001428  78.8473  90.4555  1.00266663 45299
TURKSAT 4A              
1 39522U 14007A   26188.58104483  .00000161  00000+0  00000+0 0  9997
2 39522   0.0752 283.0770 0000913 333.5329 280.0989  1.00270646 45174
EXPRESS-AT1             
1 39612U 14010A   26188.88566494  .00000016  00000+0  00000+0 0  9997
2 39612   0.3076  85.5260 0004580  50.1099 173.9631  1.00308480 45021
EXPRESS-AT2             
1 39613U 14010B   26188.72641641  .00000094  00000+0  00000+0 0  9995
2 39613   0.0164 302.5977 0000278 358.5804 302.0213  1.00270218 44705
AMAZONAS 4A             
1 39616U 14011A   26188.55799138 -.00000237  00000+0  00000+0 0  9995
2 39616   0.0619 205.4785 0004655 287.1181 279.8175  1.00272360 44910
ASTRA 5B                
1 39617U 14011B   26188.69526586  .00000152  00000+0  00000+0 0  9991
2 39617   0.0676 308.8272 0001900 160.5793  90.0426  1.00270859 44874
IRNSS-1B                
1 39635U 14017A   26188.72624308  .00000141  00000+0  00000+0 0  9990
2 39635  28.8900 240.0484 0022945 195.8882 166.2518  1.00273395 45008
LUCH-5V                 
1 39727U 14023A   26188.80719433 -.00000256  00000+0  00000+0 0  9990
2 39727   5.1806  69.5392 0002705  66.0340 175.4685  1.00267649 44567
KAZSAT-3                
1 39728U 14023B   26188.72693641  .00000076  00000+0  00000+0 0  9993
2 39728   0.0083 349.2640 0000128 283.0556 333.5712  1.00272168 42669
EUTELSAT 3B             
1 39773U 14030A   26188.71601492  .00000036  00000+0  00000+0 0  9999
2 39773   0.0634 342.3304 0003929 127.2607  76.9590  1.00274153 44277
ASIASAT 8 (AMOS-7)      
1 40107U 14046A   26188.73620979 -.00000318  00000+0  00000+0 0  9996
2 40107   0.0211 294.4748 0001436 173.0817 188.4949  1.00271424102352
ASIASAT 6               
1 40141U 14052A   26188.88165799 -.00000347  00000+0  00000+0 0  9993
2 40141   0.0155 330.8355 0000765 172.5909 219.7311  1.00270873 43280
OPTUS 10                
1 40146U 14054A   26188.67493471 -.00000132  00000+0  00000+0 0  9990
2 40146   0.1032 326.5033 0001986 142.2547 215.8504  1.00269696 43230
MEASAT-3B               
1 40147U 14054B   26188.73343645 -.00000226  00000+0  00000+0 0  9999
2 40147   0.0299  33.4361 0002541  57.8736 189.8950  1.00269731 43114
HIMAWARI-8              
1 40267U 14060A   26188.74322984 -.00000260  00000+0  00000+0 0  9991
2 40267   0.0372 277.5001 0000887 204.0391 212.3957  1.00270432 42966
IRNSS-1C                
1 40269U 14061A   26188.73178977 -.00000151  00000+0  00000+0 0  9993
2 40269   6.5687  88.5401 0022134   4.6687 178.9358  1.00273523 42891
INTELSAT 30 (IS-30)     
1 40271U 14062A   26188.55391802 -.00000135  00000+0  00000+0 0  9993
2 40271   0.0162  45.6651 0001325 344.1934   0.0276  1.00269626  6992
ARSAT 1                 
1 40272U 14062B   26188.48726749 -.00000244  00000+0  00000+0 0  9999
2 40272   0.0542 278.8766 0001876 187.2841 282.9065  1.00271472 42827
EUTELSAT 53A            
1 40277U 14064A   26188.86848458  .00000113  00000+0  00000+0 0  9994
2 40277   0.0194 296.9737 0001604 258.8137  95.6985  1.00275482 41774
GSAT-16                 
1 40332U 14078A   26188.65499979  .00000100  00000+0  00000+0 0  9994
2 40332   0.0363 264.9884 0007461 185.8172 125.6859  1.00271200 42316
DIRECTV 14              
1 40333U 14078B   26188.62438117 -.00000110  00000+0  00000+0 0  9991
2 40333   0.0105  36.3379 0000237 306.2450  68.5441  1.00273130 42241
